[{"OBJECT_NAME":"STARLINK-33556","OBJECT_ID":"2024-220X","EPOCH":"2026-03-09T10:17:38.158368","MEAN_MOTION":15.27575525,"ECCENTRICITY":0.00016157,"INCLINATION":43.0048,"RA_OF_ASC_NODE":206.8151,"ARG_OF_PERICENTER":294.5521,"MEAN_ANOMALY":65.5162,"EPHEMERIS_TYPE":0,"CLASSIFICATION_TYPE":"U","NORAD_CAT_ID":62109,"ELEMENT_SET_NO":999,"REV_AT_EPOCH":7317,"BSTAR":0.0015048592,"MEAN_MOTION_DOT":0.00041375,"MEAN_MOTION_DDOT":0},{"OBJECT_NAME":"BANDWAGON-4 OBJECT M","OBJECT_ID":"2025-248M","EPOCH":"2026-03-09T00:50:26.830464","MEAN_MOTION":15.24295413,"ECCENTRICITY":0.00129441,"INCLINATION":45.4108,"RA_OF_ASC_NODE":294.9904,"ARG_OF_PERICENTER":207.5285,"MEAN_ANOMALY":152.4918,"EPHEMERIS_TYPE":0,"CLASSIFICATION_TYPE":"U","NORAD_CAT_ID":66304,"ELEMENT_SET_NO":999,"REV_AT_EPOCH":1803,"BSTAR":0.00095703617,"MEAN_MOTION_DOT":0.00023645,"MEAN_MOTION_DDOT":0}]
