STARLINK-33556          
1 62109U 24220X   26068.42891387  .00041375  00000+0  15049-2 0  9992
2 62109  43.0048 206.8151 0001615 294.5521  65.5162 15.27575525 73170
BANDWAGON-4 OBJECT M    
1 66304U 25248M   26068.03503276  .00023645  00000+0  95704-3 0  9995
2 66304  45.4108 294.9904 0012944 207.5285 152.4918 15.24295413 18037
